{
  "type": "FeatureCollection",
  "features": [
    {
      "type": "Feature",
      "properties": {
        "norad_id": 66561,
        "name": "STARLINK-35305",
        "group": "last-30-days",
        "lat": -42.837631318185664,
        "lon": -27.43646977425772,
        "alt_km": 403.79476530321153,
        "timestamp": "2025-12-23T16:57:11.059218+00:00",
        "meta_object_name": "STARLINK-35305",
        "meta_object_id": "2025-268E",
        "meta_epoch": "2025-12-23T08:00:03.000384",
        "meta_mean_motion": 15.56789258,
        "meta_eccentricity": 0.00016542,
        "meta_inclination": 43,
        "meta_ra_of_asc_node": 59.0591,
        "meta_arg_of_pericenter": 273.1074,
        "meta_mean_anomaly": 69.1416,
        "meta_ephemeris_type": 0,
        "meta_classification_type": "U",
        "meta_norad_cat_id": 66561,
        "meta_element_set_no": 999,
        "meta_rev_at_epoch": 610,
        "meta_bstar": -0.030227086,
        "meta_mean_motion_dot": -0.01955788,
        "meta_mean_motion_ddot": 0,
        "tle_line1": "1 66561U 25268E   25357.33336806 -.01955788  00000+0 -30227-1 0  9990",
        "tle_line2": "2 66561  43.0000  59.0591 0001654 273.1074  69.1416 15.56789258  6102"
      },
      "geometry": {
        "type": "Point",
        "coordinates": [
          -27.43646977425772,
          -42.837631318185664
        ]
      }
    },
    {
      "type": "Feature",
      "properties": {
        "norad_id": 66562,
        "name": "STARLINK-35579",
        "group": "last-30-days",
        "lat": -42.96881061635275,
        "lon": -31.55284515190507,
        "alt_km": 406.4777715138089,
        "timestamp": "2025-12-23T16:57:11.059230+00:00",
        "meta_object_name": "STARLINK-35579",
        "meta_object_id": "2025-268F",
        "meta_epoch": "2025-12-23T08:00:03.000384",
        "meta_mean_motion": 15.56048823,
        "meta_eccentricity": 0.00013878,
        "meta_inclination": 43.0002,
        "meta_ra_of_asc_node": 59.0636,
        "meta_arg_of_pericenter": 268.7966,
        "meta_mean_anomaly": 71.502,
        "meta_ephemeris_type": 0,
        "meta_classification_type": "U",
        "meta_norad_cat_id": 66562,
        "meta_element_set_no": 999,
        "meta_rev_at_epoch": 610,
        "meta_bstar": -0.033427043,
        "meta_mean_motion_dot": -0.02125413,
        "meta_mean_motion_ddot": 0,
        "tle_line1": "1 66562U 25268F   25357.33336806 -.02125413  00000+0 -33427-1 0  9991",
        "tle_line2": "2 66562  43.0002  59.0636 0001387 268.7966  71.5020 15.56048823  6102"
      },
      "geometry": {
        "type": "Point",
        "coordinates": [
          -31.55284515190507,
          -42.96881061635275
        ]
      }
    },
    {
      "type": "Feature",
      "properties": {
        "norad_id": 66563,
        "name": "STARLINK-35437",
        "group": "last-30-days",
        "lat": -42.624699494868814,
        "lon": -24.129930355835832,
        "alt_km": 401.26990980707797,
        "timestamp": "2025-12-23T16:57:11.059240+00:00",
        "meta_object_name": "STARLINK-35437",
        "meta_object_id": "2025-268G",
        "meta_epoch": "2025-12-23T08:00:03.000384",
        "meta_mean_motion": 15.56719328,
        "meta_eccentricity": 0.00017223,
        "meta_inclination": 43.0005,
        "meta_ra_of_asc_node": 59.0536,
        "meta_arg_of_pericenter": 273.1393,
        "meta_mean_anomaly": 71.012,
        "meta_ephemeris_type": 0,
        "meta_classification_type": "U",
        "meta_norad_cat_id": 66563,
        "meta_element_set_no": 999,
        "meta_rev_at_epoch": 610,
        "meta_bstar": -0.012472156,
        "meta_mean_motion_dot": -0.00838014,
        "meta_mean_motion_ddot": 0,
        "tle_line1": "1 66563U 25268G   25357.33336806 -.00838014  00000+0 -12472-1 0  9995",
        "tle_line2": "2 66563  43.0005  59.0536 0001722 273.1393  71.0120 15.56719328  6103"
      },
      "geometry": {
        "type": "Point",
        "coordinates": [
          -24.129930355835832,
          -42.624699494868814
        ]
      }
    },
    {
      "type": "Feature",
      "properties": {
        "norad_id": 66564,
        "name": "STARLINK-35358",
        "group": "last-30-days",
        "lat": -42.3756960289966,
        "lon": -21.410517495381743,
        "alt_km": 400.4200306540097,
        "timestamp": "2025-12-23T16:57:11.059254+00:00",
        "meta_object_name": "STARLINK-35358",
        "meta_object_id": "2025-268H",
        "meta_epoch": "2025-12-23T08:00:03.000384",
        "meta_mean_motion": 15.5644936,
        "meta_eccentricity": 0.00014697,
        "meta_inclination": 43.0001,
        "meta_ra_of_asc_node": 59.049,
        "meta_arg_of_pericenter": 272.1212,
        "meta_mean_anomaly": 73.9952,
        "meta_ephemeris_type": 0,
        "meta_classification_type": "U",
        "meta_norad_cat_id": 66564,
        "meta_element_set_no": 999,
        "meta_rev_at_epoch": 610,
        "meta_bstar": -0.00084110116,
        "meta_mean_motion_dot": -0.00061005,
        "meta_mean_motion_ddot": 0,
        "tle_line1": "1 66564U 25268H   25357.33336806 -.00061005  00000+0 -84110-3 0  9994",
        "tle_line2": "2 66564  43.0001  59.0490 0001469 272.1212  73.9952 15.56449360  6106"
      },
      "geometry": {
        "type": "Point",
        "coordinates": [
          -21.410517495381743,
          -42.3756960289966
        ]
      }
    },
    {
      "type": "Feature",
      "properties": {
        "norad_id": 66565,
        "name": "STARLINK-35893",
        "group": "last-30-days",
        "lat": -42.081069575143445,
        "lon": -18.854195439185705,
        "alt_km": 400.36731674741895,
        "timestamp": "2025-12-23T16:57:11.059264+00:00",
        "meta_object_name": "STARLINK-35893",
        "meta_object_id": "2025-268J",
        "meta_epoch": "2025-12-23T08:00:03.000384",
        "meta_mean_motion": 15.56443545,
        "meta_eccentricity": 0.00015059,
        "meta_inclination": 43.0003,
        "meta_ra_of_asc_node": 59.0443,
        "meta_arg_of_pericenter": 272.4026,
        "meta_mean_anomaly": 75.6348,
        "meta_ephemeris_type": 0,
        "meta_classification_type": "U",
        "meta_norad_cat_id": 66565,
        "meta_element_set_no": 999,
        "meta_rev_at_epoch": 610,
        "meta_bstar": -0.0006098936,
        "meta_mean_motion_dot": -0.00044419,
        "meta_mean_motion_ddot": 0,
        "tle_line1": "1 66565U 25268J   25357.33336806 -.00044419  00000+0 -60989-3 0  9993",
        "tle_line2": "2 66565  43.0003  59.0443 0001505 272.4026  75.6348 15.56443545  6101"
      },
      "geometry": {
        "type": "Point",
        "coordinates": [
          -18.854195439185705,
          -42.081069575143445
        ]
      }
    },
    {
      "type": "Feature",
      "properties": {
        "norad_id": 66566,
        "name": "STARLINK-35871",
        "group": "last-30-days",
        "lat": -41.73028341511964,
        "lon": -16.32783932421347,
        "alt_km": 400.49738584477745,
        "timestamp": "2025-12-23T16:57:11.059277+00:00",
        "meta_object_name": "STARLINK-35871",
        "meta_object_id": "2025-268K",
        "meta_epoch": "2025-12-23T08:00:03.000384",
        "meta_mean_motion": 15.56476728,
        "meta_eccentricity": 0.00014386,
        "meta_inclination": 43.0001,
        "meta_ra_of_asc_node": 59.0397,
        "meta_arg_of_pericenter": 265.2034,
        "meta_mean_anomaly": 84.7451,
        "meta_ephemeris_type": 0,
        "meta_classification_type": "U",
        "meta_norad_cat_id": 66566,
        "meta_element_set_no": 999,
        "meta_rev_at_epoch": 610,
        "meta_bstar": -0.0016903024,
        "meta_mean_motion_dot": -0.00121432,
        "meta_mean_motion_ddot": 0,
        "tle_line1": "1 66566U 25268K   25357.33336806 -.00121432  00000+0 -16903-2 0  9991",
        "tle_line2": "2 66566  43.0001  59.0397 0001438 265.2034  84.7451 15.56476728  6107"
      },
      "geometry": {
        "type": "Point",
        "coordinates": [
          -16.32783932421347,
          -41.73028341511964
        ]
      }
    },
    {
      "type": "Feature",
      "properties": {
        "norad_id": 66567,
        "name": "STARLINK-35825",
        "group": "last-30-days",
        "lat": -41.32832785358302,
        "lon": -13.850945807582423,
        "alt_km": 400.6511546221018,
        "timestamp": "2025-12-23T16:57:11.059288+00:00",
        "meta_object_name": "STARLINK-35825",
        "meta_object_id": "2025-268L",
        "meta_epoch": "2025-12-23T08:00:03.000384",
        "meta_mean_motion": 15.56452252,
        "meta_eccentricity": 0.00012412,
        "meta_inclination": 43.0002,
        "meta_ra_of_asc_node": 59.0349,
        "meta_arg_of_pericenter": 269.9075,
        "meta_mean_anomaly": 81.9742,
        "meta_ephemeris_type": 0,
        "meta_classification_type": "U",
        "meta_norad_cat_id": 66567,
        "meta_element_set_no": 999,
        "meta_rev_at_epoch": 610,
        "meta_bstar": -0.0015621819,
        "meta_mean_motion_dot": -0.00112279,
        "meta_mean_motion_ddot": 0,
        "tle_line1": "1 66567U 25268L   25357.33336806 -.00112279  00000+0 -15622-2 0  9998",
        "tle_line2": "2 66567  43.0002  59.0349 0001241 269.9075  81.9742 15.56452252  6102"
      },
      "geometry": {
        "type": "Point",
        "coordinates": [
          -13.850945807582423,
          -41.32832785358302
        ]
      }
    }
  ]
}